IRIDIUM 150             
1 43257U 18030J   24329.62774481  .00000399  00000+0  13539-3 0  9996
2 43257  86.3991 168.5445 0001822  81.8958 278.2445 14.34221270348524
IRIDIUM 143             
1 43258U 18030K   24329.88777090 -.00000239  00000+0 -92331-4 0  9997
2 43258  86.3994 168.5063 0001715  73.6231 286.5153 14.34216373348490
IRIDIUM 161             
1 43478U 18047C   24329.40816972  .00000416  00000+0  11753-3 0  9993
2 43478  86.4472 326.5877 0002297  85.6979 274.4484 14.43278871342952
IRIDIUM 152             
1 43479U 18047D   24329.86048921  .00000364  00000+0  12289-3 0  9992
2 43479  86.3946 326.2578 0002424  90.6402 269.5071 14.34220365340884
IRIDIUM 147             
1 43480U 18047E   24329.51798703  .00000087  00000+0  23943-4 0  9998
2 43480  86.3944 326.3964 0002435  97.8006 262.3466 14.34217297340839
IRIDIUM 110             
1 43481U 18047F   24329.87317425  .00000224  00000+0  73037-4 0  9998
2 43481  86.3950 326.3251 0002737  91.5536 268.5973 14.34218332340876
IRIDIUM 162             
1 43482U 18047G   24329.47120131  .00000408  00000+0  11522-3 0  9995
2 43482  86.4470 326.4592 0002519  89.9470 270.2020 14.43275316342959
IRIDIUM 160             
1 43569U 18061A   24329.88876384  .00000762  00000+0  26485-3 0  9997
2 43569  86.3937 294.6755 0002291  92.9301 267.2157 14.34224299331772
